NOAA 19                 
1 33591U 09005A   24123.20371255  .00000299  00000+0  18481-3 0  9996
2 33591  99.0507 178.5095 0014704  64.6883 295.5810 14.12986546785139
GOES 14                 
1 35491U 09033A   24122.89848657 -.00000065  00000+0  00000+0 0  9993
2 35491   0.2302 109.3903 0003625 321.5877   4.1519  1.00270105 54325
DMSP 5D-3 F18 (USA 210) 
1 35951U 09057A   24123.20231481  .00000469  00000+0  26965-3 0  9996
2 35951  98.8114  99.1791 0010112 301.7920  58.2267 14.14087073749868
EWS-G2 (GOES 15)        
1 36411U 10008A   24122.92132844  .00000036  00000+0  00000+0 0  9995
2 36411   0.1777  90.6567 0001235 189.0298 333.7569  1.00275269 51857
COMS 1                  
1 36744U 10032A   24122.87412025 -.00000343  00000+0  00000+0 0  9999
2 36744   2.8111  85.0190 0000947 338.1330 239.9463  1.00270340 43306
FENGYUN 3B              
1 37214U 10059A   24123.23118150  .00000127  00000+0  89950-4 0  9999
2 37214  99.0589 150.6748 0021506 220.3903 208.4446 14.14480859697759
SUOMI NPP               
1 37849U 11061A   24123.15766414  .00000169  00000+0  10084-3 0  9997
2 37849  98.7198  61.8337 0001664  72.4575 287.6783 14.19558327648330
FENGYUN 2F              
1 38049U 12002A   24120.36565027 -.00000348  00000+0  00000+0 0  9996
2 38049   5.4735  73.5953 0003230  52.8468 334.7941  1.00262287 45078
METEOSAT-10 (MSG-3)     
1 38552U 12035B   24122.92024221 -.00000006  00000+0  00000+0 0  9992
2 38552   2.8623  60.5853 0002062 298.7331 192.3394  1.00269470 43070
METOP-B                 
1 38771U 12049A   24123.14057863  .00000209  00000+0  11506-3 0  9994
2 38771  98.6306 181.3877 0001639 119.7656 240.3685 14.21518613603008
INSAT-3D                
1 39216U 13038B   24122.90049135 -.00000157  00000+0  00000+0 0  9990
2 39216   0.0251 112.6394 0001013 199.7999 314.1600  1.00271855 39292
FENGYUN 3C              
1 39260U 13052A   24123.24370682  .00000211  00000+0  12734-3 0  9998
2 39260  98.4292 125.2864 0012347  98.7793 261.4781 14.16189858548821
METEOR-M 2              
1 40069U 14037A   24123.19052754  .00000244  00000+0  13173-3 0  9996
2 40069  98.4363 119.4871 0006740 125.2240 234.9570 14.20945374509090
HIMAWARI-8              
1 40267U 14060A   24122.73352476 -.00000276  00000+0  00000+0 0  9992
2 40267   0.0240 190.8934 0001061 222.2030 211.7692  1.00268937 34977
FENGYUN 2G              
1 40367U 14090A   24122.90605654 -.00000299  00000+0  00000+0 0  9999
2 40367   3.6724  82.0362 0002579  75.2911 128.7500  1.00265115 34217
METEOSAT-11 (MSG-4)     
1 40732U 15034A   24122.92215671  .00000063  00000+0  00000+0 0  9990
2 40732   1.2765  67.8294 0001538 175.8005 318.1831  1.00264504    61
ELEKTRO-L 2             
1 41105U 15074A   24122.77416431 -.00000113  00000+0  00000+0 0  9996
2 41105   4.7240  80.0003 0001187 222.8758 181.5052  1.00272078 30723
INSAT-3DR               
1 41752U 16054A   24123.07815156 -.00000077  00000+0  00000+0 0  9993
2 41752   0.0771  89.9016 0010518 184.0380  48.6696  1.00270169 28014
HIMAWARI-9              
1 41836U 16064A   24122.62907198 -.00000275  00000+0  00000+0 0  9995
2 41836   0.0455  79.2188 0000953 332.4895 175.5626  1.00271143 27420
GOES 16                 
1 41866U 16071A   24122.90527434 -.00000249  00000+0  00000+0 0  9999
2 41866   0.0279 277.8901 0000671 148.0371  45.0898  1.00271186 27321
FENGYUN 4A              
1 41882U 16077A   24123.09241215 -.00000197  00000+0  00000+0 0  9996
2 41882   0.3412  83.7553 0008833 344.4725 272.0320  1.00263608 27198
CYGFM05                 
1 41884U 16078A   24122.58062182  .00008674  00000+0  33037-3 0  9993
2 41884  34.9535 235.9237 0011969 133.4303 226.7409 15.25908885408957
CYGFM04                 
1 41885U 16078B   24122.53101451  .00008994  00000+0  33351-3 0  9996
2 41885  34.9472 220.7490 0009813 158.1165 201.9970 15.26804651409031
CYGFM02                 
1 41886U 16078C   24122.95693223  .00009142  00000+0  33569-3 0  9993
2 41886  34.9529 220.4118 0012830 149.9410 210.2044 15.27095180409252
CYGFM01                 
1 41887U 16078D   24122.61959637  .00008680  00000+0  33352-3 0  9997
2 41887  34.9479 239.4004 0012288 124.8298 235.3574 15.25611060408898
CYGFM08                 
1 41888U 16078E   24122.99469338  .00009549  00000+0  35587-3 0  9990
2 41888  34.9464 225.6614 0013116 151.4015 208.7422 15.26593910409151
CYGFM07                 
1 41890U 16078G   24122.58926158  .00009248  00000+0  34179-3 0  9998
2 41890  34.9496 219.8207 0009610 157.6829 202.4306 15.26910983409051
CYGFM03                 
1 41891U 16078H   24122.55601807  .00008607  00000+0  31896-3 0  9998
2 41891  34.9503 221.1684 0010615 141.4017 218.7459 15.26827368409180
FENGYUN 3D              
1 43010U 17072A   24123.13239008  .00000204  00000+0  11879-3 0  9997
2 43010  98.9074  77.5270 0002589  98.6224 261.5245 14.19328776334889
NOAA 20 (JPSS-1)        
1 43013U 17073A   24123.17579441  .00000130  00000+0  82215-4 0  9994
2 43013  98.7040  61.8731 0001417  42.9245 317.2042 14.19573542334376
GOES 17                 
1 43226U 18022A   24122.89944383 -.00000091  00000+0  00000+0 0  9998
2 43226   0.0041  91.2022 0000747 308.1203  40.0893  1.00271179 22630
FENGYUN 2H              
1 43491U 18050A   24122.89915510 -.00000130  00000+0  00000+0 0  9997
2 43491   1.0229  87.5337 0001396  16.0189 159.7633  1.00272877 21656
METOP-C                 
1 43689U 18087A   24123.17738732  .00000217  00000+0  11931-3 0  9991
2 43689  98.7268 182.9835 0001809 187.6183 172.4967 14.21484591284582
GEO-KOMPSAT-2A          
1 43823U 18100A   24122.79495125 -.00000344  00000+0  00000+0 0  9993
2 43823   0.0391  89.0175 0002255 344.0403 201.5876  1.00270204 19844
METEOR-M2 2             
1 44387U 19038A   24123.19398002  .00000104  00000+0  64888-4 0  9993
2 44387  98.8237  92.2461 0002436  91.2424 268.9033 14.23877976250840
ARKTIKA-M 1             
1 47719U 21016A   24122.39630923  .00000147  00000+0  00000+0 0  9994
2 47719  63.1368 157.1165 6926725 268.7971  18.0293  2.00602315 23209
FENGYUN 3E              
1 49008U 21062A   24123.25715536  .00000065  00000+0  51337-4 0  9991
2 49008  98.7329 125.1530 0002200 133.1738 226.9622 14.19747498146473
GOES 18                 
1 51850U 22021A   24123.18483709  .00000096  00000+0  00000+0 0  9991
2 51850   0.0009 129.0930 0000404 253.1063 127.9274  1.00271174  8027
NOAA 21 (JPSS-2)        
1 54234U 22150A   24122.85711085  .00000180  00000+0  10613-3 0  9996
2 54234  98.7493  61.2996 0000664  73.8369 286.2880 14.19558945 76407
METEOSAT-12 (MTG-I1)    
1 54743U 22170C   24122.92015519 -.00000007  00000+0  00000+0 0  9994
2 54743   0.4453  30.0050 0001220  35.4531 125.7861  1.00274682  5190
TIANMU-1 03             
1 55973U 23039A   24123.16722348  .00010049  00000+0  40103-3 0  9995
2 55973  97.4638 273.9794 0011190 269.1249  90.8707 15.25311246 61844
TIANMU-1 04             
1 55974U 23039B   24123.15035988  .00009896  00000+0  39551-3 0  9995
2 55974  97.4559 273.5721 0008307 267.6753  92.3534 15.25292485 61839
TIANMU-1 05             
1 55975U 23039C   24123.20173181  .00009604  00000+0  38417-3 0  9997
2 55975  97.4608 273.9161 0004588 258.3507 101.7216 15.25290737 61838
TIANMU-1 06             
1 55976U 23039D   24123.18624334  .00009635  00000+0  38549-3 0  9996
2 55976  97.4622 274.0078 0004076 260.6652  99.4125 15.25286176 61837
METEOR-M2 3             
1 57166U 23091A   24123.15904131  .00000038  00000+0  35681-4 0  9993
2 57166  98.7164 178.2364 0002841 259.5402 100.5457 14.23887210 44078
TIANMU-1 07             
1 57399U 23101A   24123.18063866  .00005959  00000+0  30984-3 0  9994
2 57399  97.3666 181.6390 0004620   8.4407 351.6903 15.16420167 43451
TIANMU-1 08             
1 57400U 23101B   24123.15047382  .00005492  00000+0  28556-3 0  9993
2 57400  97.3656 181.4882 0006996   8.2206 351.9140 15.16440486 43441
TIANMU-1 09             
1 57401U 23101C   24123.19837066  .00005485  00000+0  28556-3 0  9996
2 57401  97.3610 181.4067 0007251   2.4731 357.6537 15.16395576 43454
TIANMU-1 10             
1 57402U 23101D   24123.16390674  .00006071  00000+0  31575-3 0  9990
2 57402  97.3691 181.6015 0009367 358.1755   1.9443 15.16377121 43446
FENGYUN 3F              
1 57490U 23111A   24123.21353724  .00000141  00000+0  87173-4 0  9997
2 57490  98.7714 192.7639 0000983 142.3706 217.7539 14.19801886 38745
TIANMU-1 11             
1 58645U 23205A   24123.14312811  .00005390  00000+0  29635-3 0  9997
2 58645  97.4076 149.4343 0011277 194.5507 165.5402 15.14440574 19547
TIANMU-1 12             
1 58646U 23205B   24123.22549091  .00005646  00000+0  31024-3 0  9998
2 58646  97.4060 149.4529 0010106 185.2725 174.8402 15.14450157 19547
TIANMU-1 13             
1 58647U 23205C   24123.12586640  .00005083  00000+0  27971-3 0  9990
2 58647  97.4090 149.3324 0010523 171.1807 188.9611 15.14440796 19525
TIANMU-1 14             
1 58648U 23205D   24123.17595800  .00005058  00000+0  27826-3 0  9995
2 58648  97.4015 149.2907 0010961 172.1159 188.0247 15.14448158 19533
TIANMU-1 19             
1 58660U 23208A   24123.24545684  .00006837  00000+0  37699-3 0  9990
2 58660  97.4058 236.8226 0010307 158.2905 201.8766 15.14248236 19219
TIANMU-1 20             
1 58661U 23208B   24123.20722309  .00006816  00000+0  36736-3 0  9996
2 58661  97.3983 236.7478 0010851 168.7077 191.4401 15.15053886 19210
TIANMU-1 21             
1 58662U 23208C   24123.22616057  .00006591  00000+0  34732-3 0  9995
2 58662  97.4021 236.9422 0010563 168.5432 191.6043 15.15872291 19223
TIANMU-1 22             
1 58663U 23208D   24123.19555742  .00006919  00000+0  38160-3 0  9998
2 58663  97.4041 236.8598 0005858 173.8422 186.2883 15.14264112 19215
